GLOBALSTAR M024 [-]     
1 25883U 99043A   24061.60338164  .00000009  00000+0  26256-2 0  9996
2 25883  52.0056   6.9238 0001883  48.3160 122.0339 11.10155871 62374
GLOBALSTAR M027 [-]     
1 25884U 99043B   24061.38666469 -.00000073  00000+0 -37423-3 0  9996
2 25884  52.0207  72.0011 0021134 307.7873  52.1006 11.04367448 89001
GLOBALSTAR M054 [-]     
1 25885U 99043C   24061.62361660 -.00000064  00000+0  19441-3 0  9998
2 25885  52.0124 278.0794 0005485  82.8751 309.7115 11.39205788 65195
GLOBALSTAR M053 [-]     
1 25886U 99043D   24061.61581191 -.00000055  00000+0  39383-3 0  9998
2 25886  51.9960 198.9728 0003100  16.9656  67.5119 11.27654016 66130
GLOBALSTAR M058 [-]     
1 25907U 99049A   24061.58757065 -.00000040  00000+0  59274-3 0  9994
2 25907  51.9939 291.1165 0003131  82.3269 277.7921 11.93177776485128
GLOBALSTAR M050 [-]     
1 25908U 99049B   24061.47329812 -.00000129  00000+0 -46022-3 0  9994
2 25908  52.0018 334.4116 0008885 166.1325   5.2346 12.07429911 91081
GLOBALSTAR M033 [-]     
1 25909U 99049C   24061.48302878 -.00000089  00000+0  22465-4 0  9999
2 25909  51.9881 238.8680 0011921  23.6183 336.5210 12.20268225478033
GLOBALSTAR M055 [-]     
1 25910U 99049D   24061.56994679 -.00000039  00000+0  46963-3 0  9999
2 25910  52.0003 272.3709 0006241 225.7128 134.3212 12.29396890110152
